{"type":"FeatureCollection","name":"India","features":[{"type":"Feature","properties":{"name":"India","source":"Datameet composite \u2014 Survey of India claim (incl. J&K, PoK, Aksai Chin, Gilgit-Baltistan)"},"geometry":{"type":"MultiPolygon","coordinates":[[[[77.51873,35.48566],[77.62974,35.46208],[77.65121,35.48743],[77.68774,35.4531],[77.81461,35.52226],[77.91099,35.4621],[77.93785,35.55932],[78.02243,35.56423],[78.04037,35.58685],[78.09052,35.5334],[78.10307,35.55609],[78.15719,35.55095],[78.18004,35.6344],[78.19742,35.63984],[78.1817,35.66736],[78.20831,35.66766],[78.24363,35.72529],[78.40876,35.7307],[78.4405,35.78073],[78.46272,35.76441],[78.53559,35.7635],[78.60759,35.81518],[78.6566,35.82208],[78.6735,35.85206],[78.80024,35.86982],[78.85586,35.97424],[79.02842,35.91423],[79.07767,35.94699],[79.26958,35.92742],[79.33838,35.96347],[79.34344,35.98787],[79.44173,35.96832],[79.43962,35.9342],[79.46837,35.90034],[79.45646,35.87196],[79.4889,35.84922],[79.51734,35.85032],[79.57213,35.89653],[79.58843,35.87698],[79.57191,35.81266],[79.63858,35.77773],[79.63411,35.74158],[79.67863,35.70024],[79.70428,35.63905],[79.81684,35.62697],[79.84573,35.57456],[79.95419,35.63391],[79.95458,35.61623],[79.99895,35.60242],[79.96532,35.57471],[79.96632,35.55357],[80.05491,35.42341],[80.08799,35.43246],[80.081,35.45041],[80.11,35.47838],[80.18259,35.50885],[80.1662,35.55276],[80.20541,35.57515],[80.22488,35.55469],[80.26378,35.56834],[80.29745,35.55609],[80.31582,35.52383],[80.35842,35.52905],[80.4116,35.47711],[80.41193,35.42603],[80.28588,35.35425],[80.26621,35.29645],[80.29429,35.26789],[80.28263,35.20389],[80.25527,35.20555],[80.22267,35.17129],[80.23314,35.14797],[80.19483,35.11799],[80.21608,34.9927],[80.23358,34.98959],[80.18626,34.94649],[80.20505,34.89124],[80.13685,34.86894],[80.09899,34.77454],[80.06691,34.76226],[80.07415,34.70581],[79.97219,34.6997],[79.95154,34.67375],[79.89848,34.69619],[79.78655,34.62735],[79.80181,34.58926],[79.78825,34.56402],[79.81145,34.53408],[79.79432,34.48006],[79.72163,34.47174],[79.70188,34.48601],[79.67356,34.4546],[79.62336,34.44984],[79.53816,34.47888],[79.50885,34.45368],[79.53059,34.44264],[79.57472,34.31904],[79.60281,34.30655],[79.60736,34.23822],[79.49059,34.1909],[79.48561,34.12559],[79.41613,34.10013],[79.43041,34.06134],[79.40328,34.00233],[79.18961,34.02517],[79.09942,33.98996],[78.9952,34.03683],[78.91169,34.00971],[78.88718,33.97259],[78.93715,33.91262],[78.96522,33.82125],[79.02828,33.75368],[79.01185,33.68521],[79.09038,33.63719],[79.08514,33.61954],[79.00353,33.6074],[78.9074,33.62049],[78.88574,33.57623],[78.91352,33.55464],[78.94011,33.38002],[78.96301,33.33913],[79.02672,33.32035],[79.0352,33.27268],[79.07994,33.24492],[79.06684,33.23201],[79.10739,33.19975],[79.15197,33.18187],[79.18286,33.22001],[79.20964,33.21265],[79.21697,33.23789],[79.27223,33.22122],[79.3025,33.19067],[79.33755,33.20425],[79.4083,33.18884],[79.35851,33.06113],[79.32836,33.03446],[79.33146,33.00079],[79.36408,32.93816],[79.39971,32.94167],[79.39048,32.917],[79.47124,32.87879],[79.46091,32.83344],[79.4808,32.80068],[79.55727,32.75918],[79.54837,32.67655],[79.45246,32.60378],[79.41333,32.52003],[79.35097,32.52854],[79.33118,32.56545],[79.29345,32.53956],[79.27604,32.556],[79.24815,32.5167],[79.18829,32.51588],[79.18397,32.49783],[79.13155,32.48095],[79.10015,32.37063],[79.0136,32.38122],[78.96829,32.33574],[78.89235,32.40052],[78.8386,32.41271],[78.77937,32.47902],[78.75747,32.56718],[78.78136,32.61631],[78.74214,32.65529],[78.73959,32.69572],[78.71046,32.66774],[78.6341,32.64543],[78.63347,32.6054],[78.51628,32.61451],[78.50095,32.5836],[78.41607,32.56747],[78.39504,32.52987],[78.4722,32.44188],[78.47093,32.3971],[78.45435,32.38646],[78.48523,32.35895],[78.47881,32.32509],[78.51038,32.30306],[78.48836,32.27564],[78.52019,32.26197],[78.55992,32.20225],[78.59575,32.19799],[78.59159,32.16715],[78.6312,32.12578],[78.6825,32.11464],[78.68264,32.0801],[78.73438,32.00495],[78.77963,31.99359],[78.76892,31.93078],[78.74244,31.9016],[78.73967,31.84175],[78.7023,31.80661],[78.75113,31.68017],[78.79876,31.68155],[78.80189,31.64757],[78.84664,31.60916],[78.77521,31.54358],[78.73528,31.53648],[78.72046,31.50887],[78.72584,31.4838],[78.75754,31.48288],[78.79674,31.44407],[78.74952,31.36779],[78.77818,31.31234],[78.85341,31.29441],[78.86158,31.3153],[78.89951,31.28973],[78.94386,31.36566],[79.01869,31.34901],[79.01889,31.42672],[79.09911,31.45468],[79.17091,31.39906],[79.17061,31.36313],[79.2365,31.335],[79.22025,31.3165],[79.24921,31.28467],[79.22633,31.26059],[79.30086,31.21905],[79.31235,31.14828],[79.41276,31.10802],[79.42747,31.02292],[79.50687,31.03239],[79.55321,30.95688],[79.60314,30.93988],[79.66316,30.96445],[79.66555,30.98289],[79.73493,30.97952],[79.75231,31.0058],[79.81659,30.97168],[79.86604,30.97178],[79.88878,30.91765],[79.93097,30.88054],[79.96152,30.88854],[80.00817,30.86625],[80.11239,30.77968],[80.17279,30.80902],[80.21254,30.75268],[80.23864,30.76232],[80.24878,30.72041],[80.19257,30.66603],[80.21941,30.64277],[80.21835,30.58015],[80.31539,30.56454],[80.34548,30.52033],[80.4183,30.52359],[80.54075,30.44906],[80.60663,30.47149],[80.73414,30.40061],[80.8016,30.32303],[80.90708,30.30368],[80.92942,30.26585],[80.98245,30.27111],[81.03086,30.24709],[81.04469,30.2059],[80.99711,30.18599],[80.93295,30.17714],[80.93033,30.21333],[80.90995,30.22332],[80.86256,30.16946],[80.87767,30.12869],[80.76114,30.04961],[80.74689,30.00605],[80.67404,29.95729],[80.60288,29.95851],[80.55265,29.85051],[80.49365,29.79596],[80.43469,29.80613],[80.36574,29.74789],[80.38446,29.67452],[80.42018,29.63926],[80.40794,29.59551],[80.37878,29.56146],[80.34264,29.55305],[80.3496,29.51904],[80.28659,29.47701],[80.30245,29.45323],[80.24291,29.44391],[80.2416,29.41173],[80.27461,29.39316],[80.28009,29.34639],[80.31687,29.31491],[80.29724,29.20523],[80.28719,29.19534],[80.24827,29.22116],[80.24076,29.20261],[80.27162,29.14224],[80.23324,29.11862],[80.18342,29.13724],[80.14483,29.10429],[80.12846,29.06122],[80.13542,29.00736],[80.1181,28.98192],[80.10023,28.98665],[80.05847,28.91658],[80.07522,28.82445],[80.1181,28.82895],[80.21609,28.75555],[80.25438,28.75552],[80.25649,28.72923],[80.31615,28.7006],[80.36069,28.63457],[80.45148,28.62872],[80.46848,28.58313],[80.51705,28.55184],[80.53073,28.57242],[80.50353,28.66493],[80.53972,28.69066],[80.56855,28.68804],[80.59038,28.67995],[80.58984,28.64815],[80.66759,28.6421],[80.69044,28.5877],[80.71458,28.56838],[80.76794,28.56615],[80.78861,28.52477],[80.86602,28.48957],[80.86161,28.50439],[80.89613,28.50696],[80.91565,28.45797],[80.98017,28.45512],[80.96496,28.43775],[81.01768,28.45181],[81.03355,28.39749],[81.03567,28.41379],[81.07978,28.38503],[81.21059,28.36078],[81.23435,28.32473],[81.23255,28.28907],[81.32087,28.19749],[81.32193,28.16951],[81.30155,28.16629],[81.32805,28.1481],[81.31795,28.13366],[81.37135,28.14265],[81.3746,28.17699],[81.44659,28.16105],[81.48403,28.11857],[81.47825,28.08277],[81.62477,28.00133],[81.69845,27.98819],[81.88493,27.85697],[81.92584,27.85961],[81.96814,27.92915],[82.07002,27.92367],[82.12111,27.86586],[82.20899,27.84292],[82.44871,27.67933],[82.7079,27.72283],[82.71237,27.66297],[82.75802,27.5858],[82.73557,27.50232],[82.92931,27.50121],[82.95411,27.46775],[83.03457,27.44879],[83.1879,27.45439],[83.2722,27.38343],[83.27244,27.35268],[83.31726,27.33005],[83.35905,27.34291],[83.40949,27.41264],[83.38432,27.43599],[83.40173,27.45717],[83.38813,27.4798],[83.61426,27.46948],[83.86373,27.34585],[83.88444,27.37728],[83.83317,27.42572],[83.84744,27.44535],[84.02391,27.43258],[84.09531,27.4898],[84.0977,27.51723],[84.15071,27.51693],[84.14863,27.48612],[84.20566,27.47021],[84.20815,27.44246],[84.25411,27.45413],[84.29173,27.38507],[84.62001,27.33876],[84.68901,27.22065],[84.67478,27.09686],[84.64615,27.07567],[84.6433,27.04618],[84.75675,27.00289],[84.77328,27.01779],[84.79315,26.99592],[84.82532,27.021],[84.89173,26.96976],[84.96253,26.96052],[84.97816,26.94064],[84.96906,26.91601],[85.0527,26.88924],[85.02402,26.85444],[85.19066,26.86998],[85.17653,26.80981],[85.21149,26.75827],[85.33397,26.7416],[85.40753,26.79143],[85.45173,26.78153],[85.49535,26.79717],[85.57543,26.86101],[85.58554,26.84734],[85.62697,26.87347],[85.72888,26.80807],[85.73401,26.65083],[85.8175,26.60285],[85.85113,26.60866],[85.8516,26.56803],[85.9471,26.613],[85.95852,26.65127],[86.02694,26.66681],[86.13867,26.62886],[86.13619,26.60644],[86.19194,26.61492],[86.21745,26.58857],[86.25262,26.61719],[86.33312,26.61911],[86.49755,26.54239],[86.54162,26.53871],[86.57001,26.4965],[86.73055,26.42265],[86.76565,26.4593],[86.83356,26.43903],[86.89374,26.46205],[86.89143,26.48611],[86.92959,26.48976],[86.9327,26.5174],[87.01515,26.53216],[87.04451,26.58733],[87.07157,26.58583],[87.09148,26.45038],[87.16238,26.40398],[87.26035,26.40961],[87.26578,26.37393],[87.31233,26.37156],[87.34062,26.34737],[87.36865,26.40803],[87.46581,26.4404],[87.5475,26.41846],[87.60462,26.38093],[87.65168,26.39364],[87.67745,26.43563],[87.76713,26.41067],[87.79276,26.46886],[87.84865,26.43653],[87.88808,26.48688],[87.92692,26.41762],[87.99171,26.3927],[88.00842,26.36126],[88.0906,26.42601],[88.08812,26.46249],[88.10551,26.46909],[88.09664,26.53553],[88.16028,26.6366],[88.18627,26.73849],[88.17357,26.86541],[88.1362,26.89859],[88.14587,26.92101],[88.12031,26.95043],[88.13532,26.98507],[88.09159,27.00511],[88.07754,27.03526],[88.03724,27.03682],[88.02063,27.0876],[87.98728,27.11942],[88.01922,27.17118],[88.03162,27.28628],[88.06652,27.33603],[88.04166,27.37196],[88.07482,27.4321],[88.04368,27.49592],[88.19702,27.79104],[88.17301,27.8206],[88.20091,27.83737],[88.19616,27.854],[88.13945,27.87834],[88.118,27.91807],[88.14246,27.96528],[88.20699,27.94067],[88.20885,27.96237],[88.23764,27.96951],[88.25133,27.94166],[88.3404,27.98581],[88.41359,27.98108],[88.49491,28.05512],[88.54595,28.034],[88.55445,28.08229],[88.60237,28.08963],[88.63726,28.11823],[88.67061,28.07411],[88.75474,28.0803],[88.83608,28.0153],[88.83623,27.92785],[88.86764,27.91971],[88.88812,27.85641],[88.85708,27.81553],[88.867,27.74271],[88.83851,27.70541],[88.84823,27.66819],[88.81482,27.64691],[88.79181,27.57423],[88.7633,27.56642],[88.79357,27.52694],[88.77683,27.46929],[88.80569,27.40705],[88.8379,27.37961],[88.86114,27.3863],[88.89532,27.33293],[88.92137,27.32729],[88.91467,27.29075],[88.87934,27.26082],[88.80238,27.24877],[88.78907,27.18531],[88.74555,27.14198],[88.87163,27.1088],[88.87526,26.94321],[88.92127,26.99422],[88.95223,26.96848],[88.94511,26.9335],[88.97911,26.91789],[89.02144,26.94073],[89.04852,26.89933],[89.09567,26.89172],[89.10106,26.84409],[89.13363,26.80747],[89.26254,26.81419],[89.31878,26.85163],[89.37894,26.8623],[89.38987,26.84193],[89.43938,26.84052],[89.46961,26.80271],[89.55736,26.8134],[89.64975,26.77698],[89.62608,26.72347],[89.6581,26.71868],[89.67052,26.73959],[89.72404,26.72322],[89.75502,26.73385],[89.77469,26.70207],[89.86095,26.70202],[89.86172,26.73763],[90.04566,26.72965],[90.1939,26.7735],[90.18755,26.80709],[90.23045,26.85903],[90.3003,26.84843],[90.34602,26.8743],[90.3555,26.90085],[90.41733,26.90482],[90.54645,26.81676],[90.71723,26.76986],[90.95208,26.77903],[90.99226,26.79486],[91.05279,26.78293],[91.0968,26.82195],[91.23556,26.81248],[91.33644,26.78044],[91.37502,26.79529],[91.40756,26.84019],[91.49509,26.79155],[91.62534,26.82108],[91.68973,26.80669],[91.82436,26.8645],[91.8592,26.91339],[91.8924,26.92055],[91.98277,26.85959],[92.05643,26.84727],[92.10256,26.86746],[92.12135,26.96067],[92.07795,27.01797],[92.0817,27.04057],[92.04471,27.05198],[92.03119,27.08004],[92.02693,27.16857],[92.05692,27.18829],[92.07184,27.23478],[92.03769,27.25849],[92.07406,27.27854],[92.11952,27.27089],[92.12328,27.28661],[92.06491,27.32729],[92.04769,27.36225],[92.05615,27.39993],[92.01666,27.48062],[91.96079,27.46011],[91.84868,27.48651],[91.82808,27.46814],[91.76742,27.46491],[91.7089,27.47651],[91.71763,27.49812],[91.69453,27.50557],[91.65199,27.4833],[91.56572,27.58362],[91.58448,27.60844],[91.56233,27.63145],[91.57285,27.66083],[91.62929,27.70001],[91.643,27.76111],[91.84766,27.76111],[91.8735,27.72197],[91.9244,27.71651],[91.9654,27.73908],[91.98268,27.77734],[92.0569,27.78],[92.24366,27.88817],[92.29335,27.87248],[92.31908,27.79742],[92.42385,27.83488],[92.42681,27.80347],[92.45582,27.79334],[92.50032,27.85121],[92.5803,27.88163],[92.60692,27.91683],[92.64635,27.91261],[92.72957,27.97823],[92.73152,28.05447],[92.65644,28.07999],[92.67733,28.15096],[92.71725,28.16767],[92.763,28.16067],[92.78439,28.18671],[92.83273,28.17517],[92.92161,28.20069],[92.94687,28.26161],[93.06023,28.30461],[93.14915,28.36688],[93.19239,28.49404],[93.25104,28.5454],[93.3706,28.59973],[93.42563,28.66199],[93.62284,28.68547],[93.63725,28.65453],[93.68851,28.67833],[93.71224,28.66471],[93.78427,28.7133],[93.78985,28.73702],[93.89659,28.75746],[93.9146,28.74102],[93.91217,28.77317],[93.9749,28.82147],[93.98804,28.79504],[94.01975,28.79349],[94.02826,28.85281],[94.1619,28.90449],[94.17864,28.93594],[94.26051,28.93168],[94.27396,28.96787],[94.36638,29.02593],[94.27686,29.09386],[94.29322,29.15231],[94.37891,29.15413],[94.39052,29.18417],[94.44807,29.18338],[94.45686,29.21313],[94.49198,29.20776],[94.51063,29.2312],[94.54097,29.21974],[94.62647,29.2958],[94.69716,29.31539],[94.7349,29.28694],[94.75166,29.22968],[94.8037,29.20842],[94.80726,29.16487],[94.88419,29.17909],[95.02182,29.12748],[94.99465,29.17358],[95.09721,29.14204],[95.11937,29.11242],[95.10385,29.09607],[95.21155,29.10756],[95.26262,29.06834],[95.29935,29.13647],[95.41274,29.12592],[95.43394,29.19275],[95.45788,29.13682],[95.50361,29.12604],[95.51534,29.14322],[95.50207,29.19216],[95.59568,29.18801],[95.60563,29.236],[95.64805,29.2104],[95.69828,29.22474],[95.70883,29.20401],[95.74319,29.22569],[95.73028,29.23967],[95.75243,29.27616],[95.73715,29.29796],[95.81233,29.34753],[95.83888,29.35309],[95.84108,29.32123],[95.87749,29.31457],[95.96568,29.37578],[96.01653,29.36255],[96.0537,29.38275],[96.13632,29.34558],[96.15231,29.29636],[96.26437,29.24601],[96.26025,29.21734],[96.30281,29.19228],[96.28782,29.1321],[96.19962,29.09876],[96.21498,29.06932],[96.18682,29.03731],[96.20691,29.03257],[96.24436,29.08735],[96.3302,29.11315],[96.36603,29.08148],[96.36402,29.04227],[96.4441,28.9951],[96.44849,28.94025],[96.52169,28.93894],[96.52284,28.86208],[96.58889,28.81948],[96.57328,28.78349],[96.60282,28.78089],[96.63181,28.73371],[96.64113,28.6799],[96.54472,28.6874],[96.51403,28.58234],[96.47541,28.57334],[96.46563,28.52289],[96.40918,28.52447],[96.40645,28.50585],[96.43059,28.51068],[96.45567,28.48604],[96.47448,28.49563],[96.49811,28.42899],[96.51195,28.45346],[96.49314,28.5418],[96.55121,28.56181],[96.61397,28.62039],[96.68695,28.58977],[96.71188,28.61144],[96.72245,28.57877],[96.76202,28.55314],[96.76004,28.51941],[96.86061,28.48305],[96.86196,28.45297],[96.89345,28.41811],[96.88782,28.38729],[96.92512,28.35262],[97.00058,28.32506],[97.07781,28.37082],[97.12643,28.36189],[97.23721,28.29423],[97.24258,28.26583],[97.26441,28.26512],[97.28441,28.23143],[97.36007,28.20481],[97.35871,28.1632],[97.3251,28.13843],[97.33201,28.10576],[97.31227,28.06207],[97.35449,28.06684],[97.39536,28.01174],[97.36315,27.96532],[97.37914,27.89206],[97.3662,27.87724],[97.31911,27.88858],[97.2981,27.91608],[97.24748,27.90008],[97.11326,27.78531],[97.08773,27.73418],[97.03154,27.74949],[96.98302,27.6665],[96.93512,27.66166],[96.88981,27.60587],[96.93534,27.50831],[96.90338,27.45278],[96.96238,27.40162],[96.99841,27.31879],[97.02809,27.30848],[97.16357,27.14218],[97.13821,27.09149],[97.10043,27.10897],[97.06344,27.09177],[96.98416,27.15437],[96.86767,27.18472],[96.85468,27.21078],[96.88561,27.22693],[96.88427,27.26019],[96.84688,27.27164],[96.79674,27.34582],[96.70422,27.37226],[96.69769,27.3577],[96.60565,27.36583],[96.59615,27.33357],[96.52363,27.28629],[96.44065,27.30633],[96.38624,27.28474],[96.30745,27.29422],[96.27145,27.2714],[96.22859,27.2788],[96.02264,27.17995],[95.94573,27.05139],[95.87022,27.01312],[95.80226,27.01507],[95.72306,26.88148],[95.66722,26.90291],[95.63154,26.87375],[95.608,26.81319],[95.54317,26.83544],[95.52465,26.82266],[95.48236,26.74645],[95.45929,26.74286],[95.43059,26.70002],[95.30339,26.65084],[95.25957,26.65535],[95.25734,26.67613],[95.23392,26.68246],[95.14911,26.61601],[95.15427,26.58282],[95.10722,26.54148],[95.1141,26.51836],[95.06175,26.44952],[95.08444,26.44732],[95.0998,26.39402],[95.1322,26.37774],[95.11446,26.23272],[95.14253,26.21155],[95.12191,26.18492],[95.11774,26.10125],[95.18568,26.0733],[95.12577,25.9862],[95.08925,25.95056],[95.03099,25.93133],[95.01159,25.89795],[95.04867,25.7598],[94.93548,25.66683],[94.91483,25.60745],[94.88185,25.59076],[94.89823,25.56557],[94.84564,25.56133],[94.78383,25.48064],[94.75174,25.49377],[94.68343,25.46616],[94.67042,25.41873],[94.63474,25.39519],[94.57564,25.21386],[94.60598,25.18137],[94.74094,25.12658],[94.74408,25.03701],[94.69635,24.96826],[94.7136,24.935],[94.63224,24.83963],[94.6179,24.78057],[94.62911,24.75713],[94.605,24.71263],[94.58554,24.70594],[94.57973,24.72489],[94.54187,24.70436],[94.53991,24.64431],[94.50862,24.5939],[94.45648,24.57312],[94.42575,24.48132],[94.39823,24.48234],[94.40849,24.43988],[94.39502,24.40959],[94.36086,24.39442],[94.37846,24.37973],[94.34993,24.33441],[94.32195,24.32891],[94.32192,24.27722],[94.25991,24.16547],[94.25451,24.08247],[94.2277,24.05669],[94.23737,24.03542],[94.18993,23.93347],[94.1696,23.92868],[94.15659,23.84791],[94.12606,23.83348],[94.09606,23.88919],[94.04903,23.88724],[94.01673,23.92691],[93.96036,23.92841],[93.93011,23.95004],[93.80776,23.92676],[93.7543,24.00554],[93.62376,24.01137],[93.59185,23.96069],[93.55954,23.98203],[93.55034,23.95955],[93.50512,23.94249],[93.46336,23.97361],[93.41395,24.07413],[93.3487,24.10499],[93.35393,24.09061],[93.32847,24.08102],[93.32871,23.98503],[93.35138,23.94146],[93.39516,23.92394],[93.39176,23.75619],[93.40728,23.70716],[93.43769,23.68681],[93.41589,23.64701],[93.42799,23.58822],[93.38766,23.44554],[93.40143,23.38422],[93.38769,23.35946],[93.35537,23.35261],[93.38798,23.21647],[93.36753,23.14424],[93.3853,23.13467],[93.35532,23.11661],[93.33854,23.07417],[93.35139,23.07051],[93.29362,23.00666],[93.22877,23.01156],[93.18463,23.05949],[93.1552,23.04345],[93.13637,23.06076],[93.1265,23.04401],[93.11974,23.00237],[93.14035,22.98966],[93.13773,22.95102],[93.16419,22.91148],[93.131,22.90697],[93.09421,22.80621],[93.10714,22.75094],[93.09545,22.67229],[93.14016,22.59272],[93.10641,22.52689],[93.12835,22.52364],[93.13887,22.45422],[93.18523,22.42769],[93.20204,22.26413],[93.14174,22.24566],[93.16121,22.19651],[93.15069,22.17631],[93.12364,22.17401],[93.1109,22.20431],[93.03776,22.19541],[93.03664,22.14484],[93.05918,22.10123],[93.00454,22.10474],[93.00509,21.98716],[92.98142,21.98075],[92.95124,22.03002],[92.92664,22.0154],[92.90621,21.94142],[92.86253,22.06293],[92.84086,22.05949],[92.81002,22.09627],[92.69954,22.15504],[92.67964,22.01152],[92.65179,22.01634],[92.63463,21.98354],[92.60254,21.97812],[92.60252,22.06196],[92.56221,22.12785],[92.57986,22.14301],[92.60621,22.12378],[92.60941,22.16434],[92.55211,22.409],[92.55141,22.51336],[92.52184,22.56021],[92.53938,22.58929],[92.51682,22.72226],[92.47413,22.74674],[92.44984,22.89388],[92.43418,22.88542],[92.42029,22.91891],[92.4006,22.91187],[92.37142,22.93625],[92.39237,23.0564],[92.35817,23.10321],[92.34652,23.23647],[92.4042,23.24083],[92.36433,23.32297],[92.37895,23.36186],[92.35655,23.37204],[92.35736,23.41056],[92.31688,23.47165],[92.30818,23.57803],[92.27297,23.64221],[92.29127,23.68146],[92.27997,23.71938],[92.24125,23.72039],[92.21468,23.6521],[92.20296,23.7058],[92.17803,23.7077],[92.17108,23.73914],[92.14828,23.73556],[92.12083,23.69288],[92.08339,23.67998],[92.07935,23.64869],[92.04709,23.64578],[92.00085,23.6707],[91.97813,23.73321],[91.95703,23.73412],[91.95803,23.69463],[91.934,23.68466],[91.97027,23.47829],[91.93716,23.46662],[91.94325,23.43545],[91.89957,23.4408],[91.8451,23.40626],[91.82486,23.35388],[91.762,23.30012],[91.81001,23.16534],[91.81315,23.09857],[91.83566,23.09236],[91.80629,23.06345],[91.77434,23.06946],[91.78014,23.029],[91.76821,23.0409],[91.72066,22.98761],[91.64533,22.98481],[91.61858,22.93731],[91.6059,22.97184],[91.57658,22.96518],[91.54251,22.99967],[91.55031,23.03849],[91.53021,23.03839],[91.52974,23.09176],[91.50313,23.13063],[91.51528,23.14493],[91.49093,23.15776],[91.50749,23.18379],[91.47077,23.19654],[91.48442,23.20932],[91.4505,23.2193],[91.47028,23.22777],[91.44786,23.24385],[91.45417,23.26042],[91.41827,23.25563],[91.41152,23.28414],[91.37989,23.18459],[91.41724,23.06465],[91.39584,23.0562],[91.34696,23.10244],[91.32339,23.15821],[91.32653,23.25246],[91.30023,23.29261],[91.31314,23.3065],[91.28989,23.31863],[91.32009,23.36024],[91.29107,23.35068],[91.24929,23.49028],[91.20074,23.52022],[91.21293,23.55053],[91.19442,23.54744],[91.15964,23.61059],[91.15632,23.6709],[91.19958,23.64652],[91.2084,23.68652],[91.15343,23.68877],[91.15714,23.74223],[91.19667,23.75119],[91.21898,23.73658],[91.25414,23.83717],[91.22965,23.88114],[91.2463,23.91372],[91.23275,23.92722],[91.27622,23.92266],[91.26423,23.94436],[91.28482,23.98269],[91.29978,23.97231],[91.30393,23.99829],[91.3793,23.97537],[91.37323,24.00294],[91.39654,24.04977],[91.37448,24.10754],[91.41231,24.11588],[91.58611,24.07272],[91.59573,24.09729],[91.63819,24.1042],[91.63452,24.13836],[91.66006,24.18979],[91.64769,24.21877],[91.66587,24.23354],[91.68813,24.16218],[91.76256,24.1418],[91.74477,24.24742],[91.81648,24.21009],[91.85048,24.22375],[91.84529,24.19139],[91.90158,24.13665],[91.9405,24.26845],[91.91991,24.33709],[91.95728,24.35663],[91.99572,24.3222],[91.96969,24.38467],[92.09727,24.37253],[92.12192,24.38238],[92.13664,24.42512],[92.16396,24.41863],[92.15454,24.52321],[92.16932,24.5319],[92.21236,24.50369],[92.22368,24.5174],[92.25436,24.67808],[92.2964,24.73665],[92.27911,24.74558],[92.28878,24.78801],[92.27303,24.82759],[92.24142,24.84217],[92.24812,24.88606],[92.2318,24.90026],[92.29944,24.91598],[92.39982,24.8487],[92.49798,24.87645],[92.48871,24.94846],[92.44941,24.93987],[92.46914,24.96405],[92.41897,24.96654],[92.42545,25.0303],[92.33961,25.05024],[92.33475,25.07868],[92.31081,25.06944],[92.22736,25.09316],[92.20724,25.11144],[92.22734,25.11751],[92.18847,25.13591],[92.18194,25.11915],[92.16458,25.12634],[92.13264,25.16011],[92.06169,25.18785],[91.97617,25.16834],[91.91927,25.18245],[91.77578,25.16332],[91.75214,25.17611],[91.74686,25.14051],[91.70309,25.15931],[91.69181,25.13731],[91.63776,25.12271],[91.60188,25.14295],[91.61246,25.1763],[91.47041,25.13394],[91.46847,25.152],[91.2862,25.18559],[91.26791,25.20731],[91.07476,25.19766],[90.86212,25.1577],[90.78042,25.18622],[90.73321,25.15515],[90.68561,25.17497],[90.66607,25.16586],[90.66326,25.19745],[90.64114,25.1749],[90.50877,25.17674],[90.44094,25.14464],[90.33014,25.19381],[90.1188,25.22329],[89.98054,25.28092],[89.96655,25.30377],[89.83831,25.29324],[89.81983,25.38184],[89.88238,25.61728],[89.851,25.71161],[89.82741,25.73228],[89.84098,25.76115],[89.81647,25.8155],[89.83245,25.87069],[89.88694,25.94534],[89.82534,25.94546],[89.87112,25.98107],[89.83536,26.01074],[89.83592,25.98235],[89.81948,25.98808],[89.80881,26.0433],[89.79042,26.01785],[89.80167,26.04035],[89.77353,26.03773],[89.79859,26.05931],[89.79458,26.08799],[89.75631,26.10914],[89.7661,26.1308],[89.7475,26.15753],[89.68145,26.16372],[89.70126,26.17351],[89.67338,26.20173],[89.69173,26.21284],[89.67925,26.23831],[89.67187,26.21994],[89.63427,26.22922],[89.64949,26.19026],[89.62769,26.18408],[89.65535,26.18154],[89.64925,26.16453],[89.60906,26.18061],[89.61038,26.15472],[89.59083,26.1573],[89.60385,26.1176],[89.63009,26.11851],[89.59628,26.09856],[89.60886,26.08874],[89.62978,26.10728],[89.65012,26.06283],[89.60508,26.06365],[89.6127,26.05265],[89.57864,26.02635],[89.57744,25.9691],[89.54008,25.97017],[89.54076,26.00599],[89.4308,26.01115],[89.42351,26.04757],[89.39316,26.00651],[89.3564,26.00768],[89.30032,26.05042],[89.27562,26.04913],[89.2805,26.06569],[89.25398,26.06405],[89.26651,26.09392],[89.22973,26.12389],[89.15533,26.13832],[89.15715,26.16324],[89.13448,26.18122],[89.14087,26.23585],[89.1,26.27958],[89.10468,26.31592],[89.1225,26.28653],[89.13622,26.32019],[89.08432,26.32223],[89.1013,26.33661],[89.07953,26.36296],[89.08738,26.39773],[88.99373,26.41287],[88.98318,26.44661],[88.9565,26.45967],[88.9447,26.4257],[88.92614,26.43215],[88.92644,26.40712],[88.90466,26.40862],[88.91887,26.35945],[88.95833,26.36179],[88.95238,26.3316],[88.96134,26.35243],[88.98717,26.34842],[88.99587,26.29009],[89.00671,26.30477],[89.01831,26.28979],[89.02108,26.3092],[89.03979,26.27664],[89.06016,26.29312],[89.0507,26.24175],[88.95895,26.24021],[88.92621,26.28392],[88.89834,26.28877],[88.86174,26.27347],[88.87782,26.23355],[88.84151,26.23086],[88.81311,26.25547],[88.81902,26.29459],[88.79345,26.31006],[88.74724,26.31105],[88.74457,26.28933],[88.66617,26.26283],[88.66792,26.2973],[88.70879,26.28807],[88.68426,26.29459],[88.675,26.32019],[88.74644,26.32243],[88.73406,26.32874],[88.74542,26.34792],[88.70261,26.33454],[88.6809,26.37981],[88.7022,26.38856],[88.66963,26.39719],[88.68593,26.41302],[88.62377,26.43506],[88.62289,26.47102],[88.59434,26.47086],[88.59267,26.44999],[88.55989,26.45758],[88.55682,26.48534],[88.52649,26.48072],[88.52139,26.51057],[88.48943,26.51022],[88.48457,26.5413],[88.43586,26.54515],[88.41602,26.63168],[88.39947,26.62663],[88.33159,26.48195],[88.35307,26.44765],[88.37158,26.48797],[88.48514,26.4604],[88.52422,26.35944],[88.48023,26.3507],[88.45764,26.37664],[88.4342,26.33523],[88.40335,26.32895],[88.41483,26.31516],[88.38413,26.3132],[88.34954,26.28234],[88.35025,26.22034],[88.24713,26.19067],[88.17701,26.14798],[88.15746,26.07948],[88.18413,26.07252],[88.16907,26.04586],[88.18348,26.02515],[88.13955,26.01312],[88.1223,25.94806],[88.08574,25.91681],[88.10295,25.88889],[88.09327,25.87378],[88.11209,25.86515],[88.10692,25.81513],[88.15085,25.77566],[88.1837,25.80198],[88.20992,25.78696],[88.2366,25.81012],[88.26942,25.80833],[88.26644,25.78259],[88.37438,25.71692],[88.37133,25.69658],[88.40188,25.67263],[88.45376,25.66497],[88.44415,25.59698],[88.49996,25.58404],[88.49346,25.55887],[88.53322,25.54214],[88.5399,25.5084],[88.60898,25.51643],[88.64846,25.49688],[88.64686,25.47794],[88.69932,25.47133],[88.70748,25.49998],[88.7673,25.49775],[88.75983,25.52556],[88.81047,25.5233],[88.8393,25.45824],[88.8126,25.41052],[88.84076,25.39727],[88.84088,25.36389],[88.88426,25.32584],[88.90617,25.33777],[88.92936,25.30422],[89.00894,25.30307],[89.0084,25.26439],[88.98666,25.27455],[88.95616,25.25516],[88.96134,25.20852],[88.93633,25.2106],[88.94856,25.17787],[88.92303,25.16511],[88.87506,25.17916],[88.84384,25.2139],[88.80581,25.17062],[88.76931,25.18994],[88.74914,25.17674],[88.7113,25.20774],[88.6127,25.20421],[88.56555,25.1752],[88.49929,25.2102],[88.47541,25.21344],[88.46357,25.19494],[88.43725,25.1987],[88.44172,25.2105],[88.46213,25.14974],[88.44137,25.12787],[88.4527,25.07918],[88.43503,25.05597],[88.45265,25.03715],[88.41189,24.99868],[88.39899,24.94524],[88.34043,24.94041],[88.32423,24.91624],[88.34714,24.89246],[88.33031,24.87018],[88.27613,24.89787],[88.25716,24.87796],[88.26104,24.91774],[88.22384,24.96178],[88.13789,24.93631],[88.17502,24.86022],[88.1322,24.83614],[88.13642,24.80534],[88.12349,24.82316],[88.10606,24.7797],[88.06827,24.76923],[88.06211,24.72092],[88.00861,24.66782],[88.14156,24.51074],[88.20348,24.46],[88.27206,24.44058],[88.33389,24.38152],[88.44497,24.37891],[88.52649,24.34477],[88.55507,24.29341],[88.57005,24.32707],[88.62956,24.306],[88.69879,24.31368],[88.7354,24.27907],[88.73132,24.17333],[88.74609,24.14698],[88.69868,24.12066],[88.74251,24.05539],[88.72383,24.0474],[88.74084,24.03589],[88.72898,23.99421],[88.75791,24.00698],[88.76944,23.98207],[88.73785,23.98324],[88.7334,23.91109],[88.70632,23.9164],[88.66756,23.86962],[88.57548,23.86182],[88.60202,23.81701],[88.55605,23.78463],[88.58097,23.76057],[88.55827,23.64923],[88.59378,23.6409],[88.58039,23.6028],[88.64611,23.60916],[88.6538,23.55641],[88.72451,23.51215],[88.74143,23.47975],[88.77464,23.48021],[88.78652,23.50719],[88.80079,23.49729],[88.79542,23.4431],[88.76386,23.44805],[88.74947,23.40091],[88.76542,23.36735],[88.73208,23.35224],[88.7455,23.30779],[88.73026,23.31979],[88.72562,23.2987],[88.71078,23.31291],[88.69619,23.30218],[88.72419,23.27206],[88.71876,23.25515],[88.76946,23.24491],[88.78975,23.21844],[88.81145,23.22168],[88.81152,23.25619],[88.82413,23.23388],[88.90678,23.23605],[88.91463,23.2135],[88.94262,23.20618],[88.97598,23.22455],[88.99582,23.21501],[88.97989,23.21237],[88.9801,23.1826],[88.9665,23.19378],[88.93887,23.17737],[88.93075,23.1431],[88.86872,23.10099],[88.87997,23.00693],[88.8449,23.00924],[88.87113,22.97886],[88.85952,22.94269],[88.89397,22.95241],[88.90936,22.87991],[88.94528,22.88081],[88.96852,22.84497],[88.95876,22.79725],[88.91154,22.75725],[88.96231,22.69447],[88.92611,22.65211],[88.93453,22.61812],[88.96033,22.61607],[88.93763,22.56015],[88.96062,22.55027],[88.9962,22.46941],[89.00009,22.42958],[88.97234,22.41128],[88.99035,22.3921],[88.98477,22.32619],[89.02437,22.29582],[88.99598,22.28575],[89.07074,22.1969],[89.07141,22.14855],[89.09803,22.15509],[89.03994,22.10249],[89.03367,22.0458],[89.07641,21.9975],[89.06362,21.93654],[89.03083,21.92523],[89.00747,21.94022],[89.01911,21.97611],[88.99453,21.95081],[89.01671,21.8994],[88.98575,21.89556],[89.03208,21.86319],[89.0295,21.82069],[89.00203,21.80903],[89.02084,21.81025],[89.02539,21.75572],[89.06036,21.72817],[89.09956,21.63733],[89.05742,21.61194],[89.01997,21.66031],[89.04205,21.61817],[89.02664,21.59864],[89.00408,21.59942],[89.0,21.61947],[88.95747,21.61708],[88.94475,21.66575],[88.92,21.63036],[88.88625,21.65828],[88.87209,21.7058],[88.88539,21.74328],[88.85997,21.77706],[88.83186,21.76775],[88.86708,21.75747],[88.84292,21.70997],[88.86461,21.63581],[88.84998,21.62289],[88.84625,21.63831],[88.84914,21.61619],[88.80956,21.63414],[88.81866,21.68392],[88.8008,21.65458],[88.7225,21.67789],[88.69791,21.7425],[88.72203,21.80419],[88.69789,21.83914],[88.72039,21.8525],[88.70036,21.85667],[88.72791,21.89997],[88.72703,21.975],[88.75831,21.96789],[88.7628,22.01072],[88.77864,22.01406],[88.75111,22.04572],[88.75486,22.07533],[88.72652,22.0528],[88.6853,22.06739],[88.73531,22.02989],[88.71989,22.00281],[88.66364,22.02075],[88.63905,22.07619],[88.61908,22.01783],[88.59864,22.03069],[88.61664,21.92953],[88.57872,21.97581],[88.61372,21.9208],[88.58583,21.88872],[88.57078,21.90705],[88.57625,21.8575],[88.55497,21.81536],[88.53461,21.84],[88.55209,21.87578],[88.52661,21.85206],[88.49958,21.8758],[88.52789,21.91914],[88.5183,21.94792],[88.5,21.95542],[88.50461,21.91414],[88.45789,21.89581],[88.48206,21.88497],[88.49125,21.84086],[88.44875,21.81164],[88.47791,21.7875],[88.45625,21.70997],[88.47292,21.67083],[88.45086,21.61205],[88.42958,21.6067],[88.42416,21.71875],[88.41289,21.65161],[88.43369,21.61994],[88.39661,21.59125],[88.37955,21.67497],[88.40208,21.71997],[88.365,21.73125],[88.39706,21.71417],[88.36833,21.68206],[88.34333,21.72042],[88.31664,21.70708],[88.30747,21.73039],[88.29498,21.70542],[88.27495,21.73372],[88.30952,21.67494],[88.28622,21.59914],[88.30959,21.57917],[88.2908,21.55625],[88.24664,21.56122],[88.21536,21.61253],[88.23289,21.66664],[88.19875,21.68083],[88.21958,21.69831],[88.21956,21.76169],[88.16872,21.86914],[88.17625,21.92583],[88.15622,21.9558],[88.19289,21.995],[88.22447,22.07494],[88.20866,22.14911],[88.18078,22.19119],[88.01955,22.22292],[88.02161,22.20036],[88.13328,22.18367],[88.19033,22.10411],[88.14831,22.0595],[88.04828,22.0145],[87.97375,21.85417],[87.91914,21.80125],[87.89328,21.79289],[87.87564,21.81739],[87.88711,21.77744],[87.80417,21.69622],[87.75083,21.69619],[87.70917,21.66042],[87.55747,21.63619],[87.38747,21.57122],[87.3405,21.57775],[87.37666,21.55042],[87.17997,21.54289],[87.18747,21.55458],[87.16956,21.53831],[87.20123,21.545],[87.12753,21.51295],[87.09248,21.53706],[87.11792,21.51414],[87.10875,21.50164],[87.07584,21.47292],[87.03875,21.47833],[87.06045,21.47],[86.91211,21.33833],[86.83208,21.21244],[86.82708,21.13664],[86.97456,20.82078],[86.9675,20.78205],[86.8875,20.79711],[86.86761,20.77522],[86.9958,20.76961],[87.00336,20.71208],[86.92578,20.71042],[86.98122,20.705],[86.96416,20.69456],[87.06958,20.72081],[86.86083,20.59295],[86.76914,20.50286],[86.73164,20.53461],[86.76208,20.5025],[86.7458,20.46875],[86.71584,20.47875],[86.73789,20.47667],[86.73542,20.41583],[86.72583,20.39625],[86.70792,20.40914],[86.72,20.39378],[86.74664,20.40042],[86.73914,20.38289],[86.75919,20.39869],[86.74497,20.37706],[86.77914,20.39542],[86.76872,20.36997],[86.78789,20.37664],[86.7683,20.32878],[86.67377,20.29414],[86.72414,20.29375],[86.80542,20.36417],[86.79875,20.34667],[86.73253,20.29458],[86.67206,20.27417],[86.67914,20.25961],[86.52086,20.18458],[86.51373,20.17011],[86.55419,20.19375],[86.43955,20.05747],[86.42253,20.00206],[86.38245,19.96544],[86.37833,19.99125],[86.36661,19.97789],[86.315,19.98792],[86.37164,19.95208],[86.06997,19.85119],[85.91161,19.82378],[85.54,19.69622],[85.52786,19.67931],[85.59209,19.70328],[85.34328,19.58122],[85.14831,19.44703],[85.08331,19.37786],[85.06328,19.37036],[85.03794,19.39167],[85.05,19.36789],[85.08208,19.3742],[84.91747,19.25961],[84.90914,19.27872],[84.91539,19.25831],[84.83706,19.18497],[84.79498,19.11622],[84.7975,19.13122],[84.77747,19.10792],[84.7458,19.11706],[84.72625,19.09083],[84.74583,19.07456],[84.79289,19.11411],[84.69039,18.96667],[84.58955,18.86331],[84.55791,18.79],[84.47122,18.71167],[84.36205,18.56747],[84.34539,18.57247],[84.35664,18.58375],[84.33456,18.57667],[84.3492,18.56042],[84.3383,18.56789],[84.30625,18.53331],[84.35956,18.55414],[84.13834,18.35122],[84.09956,18.35],[84.13203,18.34333],[84.12917,18.30956],[83.95167,18.21372],[83.92455,18.22917],[83.94003,18.20955],[83.6683,18.08789],[83.57789,18.01417],[83.55625,18.02581],[83.57042,18.00664],[83.54372,17.96417],[83.45661,17.90042],[83.45453,17.92333],[83.45625,17.89083],[83.41541,17.85167],[83.41122,17.80831],[83.34411,17.72203],[83.28289,17.68914],[83.29792,17.67583],[83.21494,17.59039],[82.8825,17.42458],[82.89164,17.44711],[82.85494,17.42542],[82.86914,17.41542],[82.60167,17.28375],[82.46414,17.18875],[82.3062,17.03833],[82.27456,16.94414],[82.25042,16.93581],[82.25078,16.87536],[82.28497,16.87206],[82.27664,16.85456],[82.30334,16.86372],[82.3158,16.84122],[82.35583,16.85122],[82.35956,16.82497],[82.36208,16.94328],[82.33331,16.98875],[82.36289,16.96244],[82.37125,16.90914],[82.34192,16.73628],[82.26891,16.7067],[82.28969,16.69607],[82.33888,16.71348],[82.33352,16.68762],[82.35532,16.71052],[82.33995,16.71673],[82.3661,16.71865],[82.34483,16.72759],[82.37001,16.72404],[82.30885,16.59747],[82.28428,16.64128],[82.25848,16.64961],[82.25823,16.68866],[82.25538,16.64801],[82.30039,16.58494],[82.25872,16.56081],[82.30456,16.55994],[82.23417,16.54294],[82.03,16.44125],[82.04958,16.45331],[82.03958,16.46331],[81.96164,16.39705],[81.9635,16.43614],[81.95081,16.39292],[81.87666,16.38039],[81.71911,16.30872],[81.71709,16.36464],[81.70997,16.30542],[81.68831,16.33039],[81.54661,16.34539],[81.55328,16.37206],[81.55336,16.35208],[81.39786,16.34245],[81.27167,16.27703],[81.26747,16.29289],[81.19786,16.17414],[81.18792,16.14244],[81.20456,16.13831],[81.14792,16.01333],[81.15208,15.97167],[81.12622,15.99331],[81.13875,15.965],[80.99709,15.82247],[81.00623,15.77664],[81.02744,15.76625],[81.02744,15.78956],[81.03125,15.76081],[80.98161,15.77464],[81.01292,15.75667],[80.97581,15.73792],[80.95914,15.75875],[80.97125,15.74997],[80.95164,15.73206],[80.97414,15.74956],[80.9687,15.73083],[80.93831,15.71039],[80.89792,15.755],[80.92331,15.71458],[80.83164,15.70128],[80.83544,15.75081],[80.81253,15.74208],[80.78128,15.85417],[80.81081,15.77956],[80.80536,15.84247],[80.77,15.86953],[80.6775,15.88956],[80.52245,15.85708],[80.37497,15.77208],[80.26419,15.67208],[80.21833,15.53122],[80.23209,15.54247],[80.19292,15.50164],[80.19747,15.48958],[80.21458,15.50417],[80.20453,15.46833],[80.09959,15.32081],[80.08958,15.2075],[80.08167,15.18208],[80.06455,15.19],[80.08041,15.18083],[80.04792,15.07414],[80.08875,14.87831],[80.09292,14.81333],[80.07789,14.80914],[80.09497,14.81208],[80.12959,14.72833],[80.11247,14.74539],[80.11375,14.72414],[80.13458,14.71744],[80.13411,14.69206],[80.14039,14.71581],[80.18542,14.59667],[80.13997,14.56539],[80.19581,14.57794],[80.16786,14.33914],[80.13747,14.24458],[80.10372,14.2525],[80.13708,14.24164],[80.14208,14.07247],[80.12622,14.06583],[80.14372,14.06917],[80.14875,14.0175],[80.24372,13.81417],[80.22498,13.81869],[80.25711,13.78164],[80.23622,13.64414],[80.3325,13.37622],[80.32792,13.44],[80.34622,13.28331],[80.32792,13.2325],[80.31372,13.24664],[80.30917,13.20208],[80.33125,13.22667],[80.29459,13.12167],[80.30456,13.09081],[80.27622,13.06833],[80.27953,13.01581],[80.26414,13.01122],[80.27705,13.00667],[80.24917,12.80286],[80.23294,12.84497],[80.22961,12.78661],[80.24747,12.80039],[80.25623,12.78083],[80.15539,12.51167],[80.15625,12.46244],[80.13414,12.43119],[80.11497,12.45369],[80.13125,12.42581],[80.01456,12.26417],[79.97164,12.23458],[80.012,12.25869],[79.87289,12.03997],[79.75875,11.67161],[79.77959,11.70081],[79.75625,11.57831],[79.77541,11.50747],[79.76539,11.485],[79.78169,11.49958],[79.83208,11.36078],[79.76125,11.37917],[79.83875,11.3525],[79.85706,11.19581],[79.85206,10.8375],[79.82703,10.81747],[79.85042,10.82497],[79.87202,10.29747],[79.87753,10.32292],[79.88123,10.31083],[79.86081,10.28044],[79.79333,10.27289],[79.8112,10.28664],[79.79831,10.30456],[79.68997,10.32458],[79.6625,10.34789],[79.65833,10.32289],[79.63914,10.36542],[79.62959,10.33581],[79.5808,10.31206],[79.56039,10.32667],[79.605,10.34628],[79.54542,10.34997],[79.54333,10.32372],[79.46164,10.34958],[79.49206,10.32831],[79.46833,10.32206],[79.52414,10.31456],[79.3933,10.32036],[79.3783,10.29622],[79.29414,10.26039],[79.23125,10.14667],[79.22955,10.09747],[79.26791,10.03997],[79.15625,9.93081],[79.11205,9.86333],[79.12456,9.85583],[78.99539,9.71167],[78.93125,9.58667],[78.91956,9.49253],[78.90039,9.48667],[78.92203,9.43503],[78.99956,9.34747],[78.99494,9.33125],[78.9592,9.34042],[79.00417,9.34122],[79.06081,9.29872],[79.18914,9.28039],[79.09084,9.25875],[78.96584,9.27122],[78.91084,9.24789],[78.86086,9.25128],[78.73333,9.20792],[78.72002,9.18539],[78.66664,9.18878],[78.64622,9.1725],[78.65958,9.15244],[78.58336,9.12711],[78.48625,9.12414],[78.49167,9.14122],[78.37244,9.07708],[78.36831,9.09206],[78.36247,9.06703],[78.27253,9.00119],[78.26583,9.01792],[78.17203,8.88414],[78.16372,8.75667],[78.12539,8.76167],[78.16003,8.74958],[78.20123,8.785],[78.19878,8.75831],[78.13705,8.69083],[78.12666,8.63953],[78.10956,8.63917],[78.12836,8.63794],[78.13628,8.5975],[78.11494,8.58042],[78.13956,8.58833],[78.13123,8.495],[78.06953,8.42169],[78.06042,8.38494],[78.04372,8.38333],[78.07,8.37372],[77.80666,8.24039],[77.74667,8.17542],[77.58414,8.13706],[77.55,8.07369],[77.31667,8.12289],[77.01247,8.35039],[76.64039,8.82497],[76.5462,8.9],[76.54414,8.93206],[76.56911,8.91289],[76.60294,8.93417],[76.57291,8.92664],[76.59998,8.97119],[76.60664,8.95125],[76.61417,8.96792],[76.62914,8.94708],[76.64539,8.95167],[76.63328,8.96869],[76.6625,8.95369],[76.6683,8.97372],[76.63206,8.97917],[76.66122,8.97833],[76.66625,8.99417],[76.64497,8.99875],[76.61997,8.97542],[76.5875,8.99369],[76.56667,8.94706],[76.54955,8.95833],[76.57247,8.98206],[76.53664,8.96119],[76.53872,8.93414],[76.46036,9.13581],[76.48664,9.11458],[76.48039,9.15503],[76.4958,9.16789],[76.47789,9.1675],[76.47247,9.14208],[76.42831,9.24956],[76.45792,9.14167],[76.38455,9.3075],[76.39584,9.32372],[76.38917,9.33792],[76.38203,9.31583],[76.35709,9.36497],[76.31958,9.47503],[76.28875,9.74994],[76.23622,9.95994],[76.25661,9.96453],[76.27167,9.93036],[76.25786,9.97083],[76.288,9.94661],[76.25955,10.0225],[76.27042,10.0325],[76.24403,10.03592],[76.23039,10.01831],[76.24084,9.97292],[76.17208,10.13994],[76.16789,10.18],[76.20831,10.19539],[76.15625,10.18417],[76.11122,10.34997],[76.03375,10.5275],[76.06333,10.52458],[76.06536,10.54331],[76.04498,10.55206],[76.02836,10.52786],[75.94289,10.7225],[75.94542,10.75247],[75.93828,10.73372],[75.91956,10.77833],[75.95789,10.81664],[75.91664,10.79372],[75.91,10.82706],[75.91209,10.78494],[75.82623,11.11997],[75.84834,11.14122],[75.86955,11.12411],[75.84666,11.14375],[75.82584,11.12372],[75.80539,11.15494],[75.82872,11.15661],[75.81372,11.16244],[75.82711,11.17914],[75.80372,11.16247],[75.78042,11.2225],[75.80167,11.23375],[75.77792,11.22836],[75.73542,11.33081],[75.75792,11.35997],[75.73372,11.34664],[75.68872,11.43994],[75.62041,11.47583],[75.59959,11.57],[75.53206,11.70161],[75.54292,11.71078],[75.49709,11.73333],[75.47542,11.76328],[75.48666,11.78044],[75.45625,11.77244],[75.46294,11.80414],[75.45502,11.77789],[75.38333,11.85789],[75.35542,11.86167],[75.30042,11.94331],[75.34456,11.93333],[75.31455,11.97],[75.31416,11.95042],[75.28081,11.99542],[75.30456,11.95417],[75.2925,11.95206],[75.23206,12.02167],[75.20125,12.00411],[75.12041,12.195],[75.13123,12.2125],[75.11792,12.20244],[75.00455,12.43747],[75.01414,12.44706],[74.98539,12.4775],[75.00333,12.46869],[75.00205,12.49161],[75.0,12.47456],[74.97961,12.48747],[74.82539,12.83833],[74.84331,12.82289],[74.86955,12.83331],[74.83211,12.84747],[74.81392,12.90753],[74.82211,12.84919],[74.7812,13.08997],[74.775,13.07706],[74.69542,13.34328],[74.71372,13.33497],[74.69622,13.34833],[74.69125,13.44417],[74.70747,13.40956],[74.71958,13.45247],[74.70664,13.43706],[74.68877,13.46247],[74.66625,13.63086],[74.68,13.60539],[74.67914,13.63375],[74.72205,13.63833],[74.67953,13.65],[74.67792,13.68169],[74.66959,13.63667],[74.65039,13.66414],[74.58958,13.91914],[74.51292,13.98664],[74.50289,14.02331],[74.5292,14.02206],[74.5075,14.04211],[74.50205,14.02664],[74.46706,14.19169],[74.42711,14.2775],[74.45497,14.24539],[74.51708,14.24164],[74.4817,14.27703],[74.4425,14.27208],[74.42744,14.30872],[74.42203,14.28581],[74.39372,14.41331],[74.40955,14.415],[74.38292,14.41667],[74.34959,14.50164],[74.38289,14.53911],[74.36289,14.54078],[74.37161,14.56206],[74.3458,14.54292],[74.3533,14.51872],[74.31081,14.51792],[74.29205,14.59414],[74.34959,14.60414],[74.31416,14.59956],[74.31328,14.61539],[74.29,14.59619],[74.26791,14.62417],[74.29622,14.63831],[74.25455,14.70494],[74.28372,14.7125],[74.26125,14.70997],[74.23336,14.74461],[74.20372,14.73417],[74.20586,14.71375],[74.16911,14.76039],[74.15414,14.74208],[74.13873,14.77583],[74.1175,14.77122],[74.09209,14.80081],[74.12,14.79872],[74.12581,14.83706],[74.16417,14.83708],[74.16164,14.81708],[74.16472,14.85856],[74.11539,14.84081],[74.09705,14.89164],[74.04122,14.91747],[74.05458,14.95497],[74.03375,14.98083],[74.05128,14.98417],[73.99203,15.01833],[73.98419,15.05375],[73.91292,15.08328],[73.95628,15.15747],[73.9492,15.14286],[73.89786,15.32831],[73.8775,15.36708],[73.84331,15.35708],[73.78455,15.40831],[73.87664,15.39622],[73.88522,15.42756],[73.78875,15.45914],[73.82608,15.50383],[73.77,15.48956],[73.73378,15.58831],[73.78958,15.65244],[73.73372,15.61494],[73.69122,15.71331],[73.71625,15.72917],[73.68081,15.71875],[73.65289,15.74081],[73.67622,15.75167],[73.65542,15.78833],[73.66625,15.80831],[73.65581,15.79125],[73.63869,15.81331],[73.61127,15.8625],[73.6292,15.87122],[73.61166,15.86542],[73.59753,15.92122],[73.57328,15.91125],[73.53833,15.93961],[73.51122,15.93833],[73.50911,15.98956],[73.50497,15.96372],[73.48209,16.03833],[73.45705,16.0533],[73.4762,16.09578],[73.46664,16.14042],[73.46247,16.09122],[73.43875,16.19417],[73.45625,16.2125],[73.45161,16.22542],[73.43044,16.19917],[73.41294,16.27247],[73.435,16.28372],[73.40869,16.27417],[73.38539,16.33581],[73.39083,16.35953],[73.42789,16.37164],[73.37414,16.35872],[73.36708,16.37917],[73.41,16.40708],[73.46875,16.41331],[73.4075,16.41539],[73.36997,16.39456],[73.35789,16.44083],[73.38789,16.44836],[73.35328,16.44292],[73.31709,16.51081],[73.31289,16.53997],[73.33669,16.56042],[73.36459,16.51417],[73.35208,16.51331],[73.36244,16.47795],[73.36083,16.50708],[73.44375,16.49997],[73.36247,16.52372],[73.35748,16.53706],[73.37544,16.5375],[73.34911,16.55456],[73.40002,16.54369],[73.40955,16.55664],[73.35914,16.55292],[73.31875,16.59833],[73.35414,16.59292],[73.34292,16.60581],[73.37331,16.62872],[73.40078,16.58875],[73.38455,16.60086],[73.40211,16.6158],[73.39081,16.63539],[73.33286,16.61914],[73.34209,16.63247],[73.32455,16.6433],[73.34539,16.69167],[73.32161,16.69372],[73.30708,16.72831],[73.31039,16.78583],[73.33167,16.80958],[73.34292,16.7858],[73.33122,16.8225],[73.34625,16.82831],[73.31664,16.80539],[73.29703,16.81333],[73.28875,16.87914],[73.31709,16.88333],[73.27792,16.89081],[73.28291,16.95247],[73.29667,16.98042],[73.33164,16.94456],[73.33041,16.9675],[73.27203,16.98664],[73.28625,17.01081],[73.25914,17.01953],[73.25706,17.04753],[73.27959,17.03417],[73.2875,16.99875],[73.29122,17.03336],[73.32542,17.04],[73.28164,17.03792],[73.29122,17.07414],[73.31541,17.08417],[73.28539,17.07914],[73.29164,17.11375],[73.26869,17.10914],[73.27209,17.14994],[73.2337,17.19581],[73.25125,17.195],[73.24792,17.21997],[73.19122,17.29664],[73.22334,17.29958],[73.26164,17.25792],[73.26039,17.28411],[73.29955,17.29164],[73.23952,17.29083],[73.21291,17.38078],[73.17206,17.39917],[73.21372,17.43328],[73.18872,17.44081],[73.19119,17.51083],[73.13956,17.5575],[73.21658,17.58881],[73.17078,17.57956],[73.13795,17.61],[73.13036,17.63581],[73.14375,17.63747],[73.1162,17.68],[73.13705,17.71331],[73.08872,17.83414],[73.12955,17.83419],[73.09081,17.83956],[73.07205,17.88497],[73.08536,17.89417],[73.05372,17.90164],[73.05456,17.92414],[73.09209,17.94],[73.055,17.92708],[73.03125,17.94917],[73.04244,17.97789],[73.09094,17.99036],[73.01958,17.9908],[73.00372,18.01995],[73.03,18.02458],[73.04039,18.05164],[73.01833,18.02708],[72.99208,18.05247],[72.9987,18.08083],[72.97289,18.12994],[72.99292,18.15747],[72.98959,18.19167],[72.93291,18.21747],[72.93628,18.27997],[72.96667,18.27875],[72.97667,18.24456],[73.07286,18.21747],[73.05959,18.18247],[73.10208,18.14244],[73.06289,18.19081],[73.08041,18.235],[73.04456,18.29583],[73.08247,18.29955],[73.08622,18.31917],[73.04583,18.30458],[73.05542,18.26917],[73.02998,18.26289],[73.01503,18.28458],[72.99416,18.27289],[72.95792,18.31336],[72.97083,18.31792],[72.92122,18.3475],[72.92875,18.38164],[72.89539,18.45667],[72.90706,18.53994],[72.96497,18.53542],[73.00625,18.46667],[72.96833,18.53958],[72.92455,18.54164],[72.88539,18.6258],[72.89958,18.63417],[72.87119,18.63914],[72.85709,18.69417],[72.86792,18.80081],[72.91331,18.79208],[72.93916,18.82539],[72.99706,18.77831],[72.98039,18.75247],[73.01625,18.715],[72.98959,18.74914],[73.00208,18.77917],[72.97875,18.79997],[73.01289,18.8025],[72.98456,18.81081],[72.98917,18.86542],[72.92747,18.84958],[72.90875,18.89744],[72.92919,18.91122],[72.9475,18.89122],[72.94209,18.90744],[72.96539,18.91667],[72.95039,18.94581],[72.98666,18.94289],[72.95705,18.96917],[72.995,18.96792],[73.03497,19.00122],[73.05417,18.99706],[73.05417,19.01544],[73.06709,19.00336],[73.06705,19.02081],[73.00122,19.00414],[72.98456,19.06831],[72.99875,19.09164],[72.97872,19.1025],[72.98581,19.18953],[72.94661,19.11125],[72.95541,19.09333],[72.93039,19.0875],[72.95045,19.08997],[72.95792,19.03745],[72.91419,18.99708],[72.86578,19.00622],[72.84622,18.92747],[72.80622,18.89333],[72.82291,18.93667],[72.79039,18.94747],[72.83872,19.04331],[72.81789,19.04331],[72.83459,19.09081],[72.80458,19.14333],[72.83125,19.17997],[72.79706,19.12914],[72.77959,19.15411],[72.84122,19.25414],[72.78328,19.19205],[72.78625,19.30497],[72.80997,19.29208],[72.85744,19.31542],[72.91211,19.28833],[72.85416,19.35042],[72.81331,19.32378],[72.77708,19.34833],[72.74455,19.45994],[72.77834,19.49208],[72.82169,19.49203],[72.84834,19.52125],[72.88878,19.52414],[72.84583,19.54125],[72.82914,19.50956],[72.78078,19.50375],[72.7875,19.52372],[72.76331,19.50622],[72.73039,19.52917],[72.71622,19.59167],[72.74786,19.59911],[72.73042,19.60167],[72.69542,19.72583],[72.71494,19.74461],[72.69209,19.73914],[72.69705,19.80167],[72.65544,19.83331],[72.69211,19.86331],[72.66578,19.93372],[72.71083,19.96872],[72.74628,19.94164],[72.745,19.96372],[72.71872,19.9725],[72.70789,20.07167],[72.73792,20.115],[72.74792,20.20167],[72.78289,20.21083],[72.74706,20.20664],[72.75375,20.29],[72.78911,20.35044],[72.83708,20.37247],[72.82203,20.37],[72.82872,20.405],[72.85253,20.40875],[72.82956,20.41414],[72.83039,20.44247],[72.90044,20.53],[72.88961,20.62747],[72.91294,20.63664],[72.88661,20.63708],[72.84502,20.74375],[72.87666,20.73456],[72.93042,20.75914],[72.85667,20.75203],[72.85414,20.82375],[72.82625,20.79414],[72.78289,20.91917],[72.81331,20.93119],[72.82414,20.91453],[72.82414,20.94958],[72.86417,20.94625],[72.83334,20.95955],[72.84959,20.97164],[72.75833,20.92878],[72.73372,20.99828],[72.7283,21.05372],[72.78247,21.04292],[72.79164,21.05622],[72.84872,21.03247],[72.79789,21.05],[72.82789,21.09167],[72.77831,21.06539],[72.70703,21.0875],[72.70961,21.13083],[72.7887,21.18],[72.75253,21.17869],[72.73331,21.14375],[72.67747,21.15792],[72.65036,21.08914],[72.66456,21.08831],[72.64,21.08039],[72.62202,21.13747],[72.63503,21.12792],[72.65125,21.14664],[72.63333,21.13122],[72.62045,21.16917],[72.63786,21.20661],[72.6625,21.22622],[72.69495,21.19289],[72.74167,21.19789],[72.63997,21.23536],[72.62961,21.24997],[72.64625,21.26744],[72.62581,21.25375],[72.61792,21.2683],[72.63873,21.29831],[72.59786,21.29831],[72.63625,21.31914],[72.62664,21.34286],[72.65334,21.33039],[72.65334,21.34622],[72.68625,21.355],[72.66077,21.34708],[72.64619,21.38667],[72.66536,21.38997],[72.69911,21.46292],[72.7325,21.46708],[72.73914,21.43456],[72.76244,21.44789],[72.74,21.44953],[72.74875,21.47081],[72.7275,21.47792],[72.64577,21.44622],[72.67958,21.50083],[72.775,21.59708],[72.8225,21.61039],[72.83417,21.66628],[72.92789,21.67578],[72.86916,21.69042],[72.78416,21.66372],[72.7375,21.69039],[72.53667,21.66286],[72.52708,21.71083],[72.55334,21.73708],[72.56961,21.81247],[72.61872,21.90586],[72.63958,21.91164],[72.65164,21.94708],[72.67919,21.95458],[72.71414,21.93628],[72.74958,21.97328],[72.73083,21.98794],[72.72667,21.95208],[72.70331,21.97122],[72.64747,21.96544],[72.53748,21.89622],[72.51041,21.92167],[72.52372,21.96745],[72.50789,21.97581],[72.52625,21.97667],[72.51458,22.02914],[72.54789,22.14831],[72.58583,22.20456],[72.64584,22.21622],[72.7608,22.17375],[72.78,22.20125],[72.79706,22.19831],[72.78042,22.21081],[72.82166,22.23872],[72.80289,22.24164],[72.82956,22.25],[72.81875,22.25664],[72.87581,22.23039],[72.91206,22.26497],[72.83997,22.28203],[72.74831,22.23125],[72.64503,22.28372],[72.5658,22.30458],[72.53503,22.28956],[72.535,22.30539],[72.53372,22.2858],[72.47083,22.25206],[72.43081,22.20453],[72.43,22.23875],[72.40872,22.20997],[72.41211,22.2575],[72.38,22.33706],[72.34959,22.31083],[72.35583,22.28542],[72.33086,22.28786],[72.32623,22.30831],[72.33122,22.24833],[72.31497,22.23206],[72.28289,22.24494],[72.30125,22.23247],[72.29872,22.10333],[72.23497,22.01211],[72.18203,22.0225],[72.23792,22.0],[72.24706,21.92417],[72.21167,21.95372],[72.19,21.94292],[72.16331,21.95955],[72.22667,21.94372],[72.24953,21.9108],[72.24956,21.80997],[72.21458,21.82497],[72.215,21.85708],[72.20872,21.82667],[72.18831,21.84042],[72.16619,21.81],[72.19417,21.82125],[72.21539,21.7958],[72.23956,21.76167],[72.22456,21.74667],[72.23792,21.70919],[72.28122,21.69],[72.30625,21.62667],[72.26791,21.5725],[72.23627,21.45411],[72.11039,21.30083],[72.08916,21.31544],[72.11289,21.2975],[72.08375,21.24661],[72.11127,21.19911],[72.00916,21.13458],[71.89833,21.11325],[71.88328,21.08914],[71.79417,21.05089],[71.79958,21.06881],[71.77831,21.06756],[71.78247,21.04514],[71.8083,21.03672],[71.77661,21.03925],[71.76495,21.06594],[71.74294,21.03469],[71.78375,21.03222],[71.76583,21.02097],[71.72164,21.021],[71.56667,20.94872],[71.53494,20.94375],[71.58247,20.98792],[71.53995,20.9537],[71.51417,20.95542],[71.47955,20.88831],[71.4425,20.86792],[71.36452,20.87244],[71.38541,20.85497],[71.20836,20.80625],[71.20417,20.78703],[71.12375,20.76247],[71.14747,20.75794],[71.09081,20.75622],[71.08667,20.76958],[71.07833,20.74369],[71.06625,20.75245],[71.0725,20.73292],[70.97247,20.72789],[70.99789,20.71331],[70.98083,20.70042],[70.89833,20.69706],[70.87378,20.70833],[70.8775,20.72792],[70.87458,20.70333],[70.82205,20.69083],[70.67414,20.76539],[70.65327,20.75872],[70.65911,20.77953],[70.61584,20.76958],[70.44997,20.84872],[70.41209,20.87583],[70.42208,20.8933],[70.40916,20.87792],[70.3625,20.90206],[70.15578,21.05456],[69.77705,21.45494],[69.81084,21.44872],[69.80503,21.45958],[69.77497,21.45789],[69.61164,21.62706],[69.39122,21.805],[69.37373,21.82828],[69.39577,21.85456],[69.38411,21.86205],[69.3717,21.82961],[69.355,21.83539],[69.25958,21.91417],[69.20084,21.97706],[69.21044,21.98669],[69.1975,21.98125],[68.97622,22.21497],[68.93539,22.30669],[68.98039,22.40831],[69.06834,22.47872],[69.08289,22.47167],[69.04208,22.43417],[69.03542,22.38997],[69.07914,22.38539],[69.10081,22.40792],[69.12911,22.39625],[69.19209,22.41833],[69.19955,22.38911],[69.16753,22.37206],[69.18122,22.36831],[69.15708,22.31],[69.22747,22.25622],[69.32,22.29203],[69.3308,22.32792],[69.41414,22.31539],[69.48,22.33208],[69.49664,22.36708],[69.52414,22.36872],[69.51,22.42539],[69.55122,22.39914],[69.5525,22.34872],[69.59036,22.365],[69.57408,22.32208],[69.59414,22.35208],[69.61292,22.32831],[69.62164,22.36539],[69.66789,22.32333],[69.64622,22.35664],[69.66417,22.39458],[69.69872,22.39836],[69.70292,22.44994],[69.72836,22.47456],[69.73997,22.42875],[69.76083,22.44125],[69.80833,22.39789],[69.83164,22.44958],[69.89833,22.46539],[69.92081,22.43792],[69.90789,22.48914],[69.92997,22.50956],[69.96081,22.50289],[69.94622,22.52667],[69.98581,22.54456],[70.02753,22.55211],[70.0258,22.53622],[70.04247,22.56044],[70.06578,22.54125],[70.11828,22.55042],[70.10748,22.51956],[70.13164,22.55208],[70.14417,22.53622],[70.14581,22.55544],[70.17416,22.54203],[70.19167,22.58039],[70.21577,22.57042],[70.19789,22.60083],[70.21497,22.59789],[70.20792,22.60917],[70.25875,22.65661],[70.25539,22.68247],[70.28414,22.67622],[70.25955,22.71833],[70.31795,22.75917],[70.35122,22.885],[70.41708,22.9225],[70.4475,22.97039],[70.39584,22.98039],[70.39042,22.93581],[70.35167,22.92289],[70.28748,22.94461],[70.23539,22.97914],[70.21914,23.05542],[70.23289,22.96414],[70.20619,22.97747],[70.22414,22.95289],[70.14753,22.94625],[70.11961,22.96244],[70.13167,22.99586],[70.10703,22.96414],[70.13956,22.93333],[70.10003,22.90786],[70.0675,22.91956],[70.01086,22.90536],[70.00414,22.91958],[70.00664,22.90453],[69.945,22.90789],[69.95625,22.89664],[69.89833,22.87128],[69.88497,22.91286],[69.87497,22.86711],[69.79914,22.84542],[69.78414,22.86372],[69.78247,22.83453],[69.72875,22.81914],[69.74375,22.78747],[69.71375,22.79914],[69.73125,22.77667],[69.71372,22.77417],[69.71664,22.75208],[69.705,22.76039],[69.71667,22.74369],[69.68291,22.76331],[69.71083,22.73789],[69.6658,22.75286],[69.66411,22.77208],[69.66084,22.74792],[69.60333,22.77789],[69.6133,22.75706],[69.57664,22.75958],[69.55209,22.7825],[69.56914,22.79622],[69.54747,22.78205],[69.4708,22.79125],[69.49786,22.77667],[69.45164,22.77542],[69.35203,22.81836],[69.37206,22.85494],[69.35291,22.84503],[69.36166,22.8812],[69.35,22.81789],[69.30331,22.83039],[69.32414,22.84369],[69.2758,22.82206],[69.23042,22.8325],[69.22498,22.87622],[69.22708,22.8375],[69.19581,22.83622],[69.12122,22.8775],[69.14247,22.89622],[69.10833,22.88708],[69.07956,22.90753],[69.0825,22.92875],[69.06917,22.91706],[69.07584,22.95208],[69.06416,22.91539],[69.00872,22.94747],[69.01419,22.98292],[69.00706,22.94919],[68.99084,22.95372],[68.96872,22.96669],[68.98248,22.99203],[68.96247,22.96789],[68.63158,23.16867],[68.71741,23.12536],[68.57948,23.22744],[68.59825,23.24036],[68.63033,23.21994],[68.60364,23.24083],[68.65781,23.25161],[68.66241,23.27286],[68.63448,23.26658],[68.62783,23.29331],[68.67947,23.30164],[68.65992,23.30206],[68.662,23.31747],[68.65575,23.30122],[68.63575,23.30617],[68.60825,23.36708],[68.61903,23.32536],[68.57575,23.34703],[68.56908,23.37289],[68.59947,23.3658],[68.56364,23.37997],[68.57408,23.40039],[68.53783,23.4075],[68.52242,23.45706],[68.49789,23.45411],[68.50911,23.49375],[68.44872,23.48],[68.48539,23.51747],[68.45372,23.51581],[68.46914,23.55125],[68.44036,23.52911],[68.44955,23.50494],[68.42539,23.50917],[68.42786,23.55833],[68.4612,23.57417],[68.44456,23.57083],[68.45284,23.59667],[68.54784,23.71417],[68.62959,23.76083],[68.66664,23.81214],[68.67995,23.79875],[68.68164,23.82128],[68.76489,23.84128],[68.81081,23.87881],[68.78989,23.88378],[68.77242,23.85878],[68.76239,23.88378],[68.76953,23.86583],[68.74911,23.84711],[68.65908,23.85875],[68.68289,23.84917],[68.58161,23.81378],[68.53245,23.75208],[68.51534,23.78003],[68.51408,23.74545],[68.46414,23.77378],[68.47703,23.74336],[68.43414,23.73628],[68.45289,23.77917],[68.44556,23.81803],[68.42678,23.81936],[68.43369,23.7767],[68.39911,23.75128],[68.41789,23.75836],[68.42039,23.71667],[68.39956,23.63669],[68.36955,23.62417],[68.392,23.60581],[68.36414,23.61205],[68.37456,23.59747],[68.34998,23.58206],[68.26581,23.55628],[68.27206,23.59417],[68.28958,23.5983],[68.27164,23.62461],[68.25414,23.56792],[68.20911,23.57711],[68.17203,23.61667],[68.19083,23.64622],[68.21161,23.64794],[68.19994,23.63292],[68.26167,23.65042],[68.30206,23.67667],[68.31411,23.71708],[68.33244,23.71206],[68.33908,23.74128],[68.34956,23.73003],[68.3203,23.75842],[68.32703,23.7333],[68.28539,23.72917],[68.29539,23.71997],[68.27081,23.69797],[68.26247,23.73631],[68.26875,23.6875],[68.24578,23.67122],[68.23083,23.70711],[68.21584,23.69458],[68.18958,23.72669],[68.21536,23.75836],[68.20705,23.83419],[68.24578,23.85378],[68.2608,23.83544],[68.25792,23.88253],[68.29069,23.89295],[68.27944,23.91707],[68.33481,23.91624],[68.35698,23.97415],[68.36508,23.94038],[68.37955,23.97083],[68.75299,23.97142],[68.7647,24.29579],[68.80801,24.31349],[68.8308,24.31152],[68.86602,24.2122],[68.90678,24.27983],[68.94538,24.30253],[68.98485,24.22767],[69.00342,24.22306],[69.09482,24.27444],[69.19416,24.23639],[69.31276,24.28143],[69.49398,24.26782],[69.59429,24.29238],[69.73152,24.17104],[70.02502,24.17103],[70.06654,24.19897],[70.10992,24.295],[70.36865,24.35091],[70.56134,24.42085],[70.6025,24.40815],[70.56211,24.354],[70.58466,24.29041],[70.57134,24.25175],[70.714,24.21571],[70.80537,24.22083],[70.90668,24.2594],[70.87394,24.29485],[70.94692,24.34852],[70.986,24.36528],[71.04204,24.35105],[71.08428,24.39452],[71.11965,24.40245],[71.12577,24.42009],[71.10315,24.43572],[70.9985,24.44437],[71.00498,24.52321],[70.98629,24.59557],[71.00888,24.63541],[71.09618,24.68863],[70.93771,24.93861],[70.88849,25.1481],[70.75167,25.27771],[70.73679,25.33244],[70.66482,25.39689],[70.67856,25.52554],[70.66015,25.70202],[70.60861,25.71485],[70.53017,25.68337],[70.38702,25.67374],[70.26864,25.71364],[70.09981,25.93824],[70.08344,26.08338],[70.1412,26.15597],[70.17515,26.25148],[70.17428,26.55133],[70.05628,26.60052],[69.88616,26.57873],[69.82317,26.58896],[69.7225,26.65337],[69.5103,26.74354],[69.48444,26.80487],[69.51338,27.00993],[69.58683,27.18325],[69.86289,27.40215],[69.93375,27.49774],[70.02593,27.56287],[70.13255,27.80598],[70.37223,28.01182],[70.50571,28.03698],[70.5895,28.01046],[70.67741,27.92183],[70.68435,27.8282],[70.73985,27.74191],[70.75944,27.72122],[70.872,27.70555],[71.20557,27.83534],[71.38307,27.87253],[71.66649,27.87781],[71.89835,27.96124],[71.92733,28.1217],[72.00432,28.21854],[72.13226,28.31295],[72.20663,28.39476],[72.29931,28.66971],[72.39025,28.76971],[72.7331,28.94801],[72.94583,29.0278],[73.0044,29.153],[73.08442,29.23619],[73.28225,29.57206],[73.39699,29.94593],[73.5971,30.01894],[73.80663,30.06797],[73.97269,30.19825],[73.95647,30.27604],[73.87983,30.35976],[73.97382,30.44395],[73.92651,30.43891],[73.93466,30.49016],[73.96418,30.45643],[73.98203,30.50397],[74.01998,30.51415],[74.01193,30.53362],[74.03107,30.52687],[74.03926,30.54255],[74.07234,30.52289],[74.09092,30.54939],[74.07349,30.55464],[74.10197,30.57916],[74.09597,30.61143],[74.11796,30.60789],[74.12742,30.63476],[74.19339,30.66513],[74.23243,30.72443],[74.28655,30.73558],[74.26115,30.77465],[74.30186,30.77937],[74.32043,30.84656],[74.38218,30.86039],[74.36089,30.87369],[74.36588,30.89298],[74.42277,30.90777],[74.41647,30.94033],[74.54647,30.99246],[74.56827,31.05478],[74.59692,31.03764],[74.6961,31.07396],[74.68915,31.12795],[74.63642,31.11814],[74.60245,31.13333],[74.61058,31.09911],[74.57129,31.08136],[74.55144,31.08646],[74.5485,31.12204],[74.51041,31.13196],[74.5327,31.2494],[74.52113,31.27208],[74.5421,31.30373],[74.52637,31.31243],[74.55174,31.3644],[74.58349,31.37901],[74.60125,31.41993],[74.65467,31.42591],[74.63669,31.48474],[74.57536,31.50091],[74.61286,31.52725],[74.61589,31.56904],[74.55547,31.60791],[74.53511,31.67763],[74.48662,31.71505],[74.5039,31.7403],[74.55942,31.75786],[74.55791,31.80479],[74.60739,31.89008],[74.63625,31.88422],[74.66671,31.92259],[74.71906,31.92377],[74.71994,31.94145],[74.75539,31.95582],[74.81901,31.95871],[74.82886,31.99918],[74.87999,32.03187],[74.87943,32.05375],[74.93364,32.06565],[75.01241,32.03568],[75.06871,32.06718],[75.10488,32.05868],[75.12291,32.08147],[75.17427,32.06767],[75.19834,32.08279],[75.20341,32.12022],[75.24027,32.09103],[75.32231,32.17933],[75.31622,32.20804],[75.37232,32.22578],[75.38148,32.26879],[75.3208,32.29725],[75.33751,32.32058],[75.322,32.3437],[75.25825,32.37234],[75.25694,32.3894],[75.19282,32.40101],[75.19177,32.42615],[75.13291,32.40883],[75.10169,32.47747],[75.08522,32.46909],[75.02653,32.49759],[75.0155,32.46439],[74.95164,32.44647],[74.93925,32.47128],[74.87638,32.47729],[74.8771,32.49391],[74.82003,32.49953],[74.81259,32.48005],[74.72717,32.47584],[74.68142,32.49275],[74.69023,32.53426],[74.66188,32.54584],[74.6731,32.56798],[74.65162,32.563],[74.65906,32.59674],[74.63848,32.61461],[74.6951,32.66057],[74.66624,32.6756],[74.65447,32.7291],[74.70525,32.84195],[74.63289,32.80891],[74.65864,32.78746],[74.63203,32.776],[74.63763,32.75147],[74.56613,32.76007],[74.5143,32.74422],[74.51117,32.76441],[74.46384,32.77662],[74.44519,32.80408],[74.41065,32.77198],[74.37175,32.76958],[74.34125,32.80968],[74.00099,32.95438],[73.92581,33.03408],[73.81615,33.01034],[73.77602,33.02108],[73.72967,33.06404],[73.63414,33.09344],[73.6251,33.13187],[73.67032,33.15222],[73.67032,33.21101],[73.62736,33.24153],[73.60828,33.3349],[73.57598,33.3774],[73.63018,33.45633],[73.61209,33.50834],[73.63357,33.52642],[73.62849,33.56769],[73.57196,33.63043],[73.60079,33.69883],[73.56687,33.79775],[73.59457,33.89158],[73.5437,33.95432],[73.52448,34.01254],[73.50141,34.018],[73.51487,34.03685],[73.49904,34.20756],[73.47361,34.25617],[73.4883,34.27934],[73.4623,34.28782],[73.39843,34.37826],[73.42782,34.4167],[73.45326,34.56932],[73.53748,34.57158],[73.56405,34.58967],[73.65675,34.56254],[73.65901,34.59928],[73.69971,34.64789],[73.66466,34.66994],[73.72797,34.76433],[73.77771,34.79486],[73.83085,34.79147],[73.8382,34.81408],[73.9275,34.81125],[73.93429,34.8316],[73.9682,34.83556],[73.97781,34.86608],[74.04508,34.89039],[74.03886,34.91413],[74.07165,34.93787],[74.06091,34.98874],[74.11121,35.01757],[74.07673,35.04753],[74.08747,35.08257],[74.13195,35.11929],[74.11234,35.15315],[74.03569,35.14959],[74.00302,35.18465],[73.95786,35.16504],[73.92578,35.21019],[73.87112,35.20485],[73.80934,35.24287],[73.74991,35.22089],[73.69287,35.34923],[73.72733,35.41934],[73.79447,35.44904],[73.78556,35.52449],[73.49987,35.54289],[73.4053,35.52926],[73.3952,35.58689],[73.35598,35.60947],[73.33103,35.66294],[73.24012,35.65759],[73.12605,35.72117],[73.11179,35.75919],[73.20032,35.78712],[73.17833,35.8602],[73.12907,35.84589],[73.09218,35.87565],[73.02627,35.84229],[72.9989,35.86258],[72.90383,35.84178],[72.89076,35.87743],[72.83669,35.87327],[72.81947,35.88809],[72.78572,35.84808],[72.68337,35.82043],[72.5685,35.8518],[72.50991,35.90239],[72.56813,36.01231],[72.5212,36.07885],[72.54912,36.23274],[72.59368,36.26958],[72.68637,36.27552],[72.72176,36.31346],[72.84834,36.37643],[72.87149,36.45244],[72.96741,36.47694],[72.97038,36.50902],[73.04108,36.54764],[73.07495,36.60943],[73.0494,36.67301],[73.06188,36.69737],[73.15219,36.73005],[73.26805,36.72113],[73.3744,36.75797],[73.5069,36.73005],[73.56869,36.73599],[73.60375,36.70985],[73.77546,36.72827],[73.83428,36.70985],[73.86101,36.7247],[73.86814,36.755],[73.83903,36.80135],[73.79328,36.81204],[73.78496,36.83462],[73.69703,36.85482],[73.65057,36.91576],[73.66987,36.92237],[73.84241,36.90725],[73.91089,36.88857],[73.97492,36.84054],[74.04073,36.83432],[74.12967,36.85744],[74.15101,36.91792],[74.2773,36.91525],[74.42404,37.00687],[74.52186,37.00598],[74.53698,36.97662],[74.56277,36.97129],[74.57344,37.03889],[74.68905,37.09581],[74.70417,37.09759],[74.73475,37.03751],[74.78083,37.03433],[74.79354,37.05711],[74.84067,37.06558],[74.84279,37.02374],[74.90211,36.94058],[74.93918,36.94799],[74.92329,36.98348],[74.93706,36.99249],[75.03344,37.02586],[75.06363,37.01315],[75.14571,37.03433],[75.1706,37.02268],[75.16873,36.99931],[75.24103,36.97183],[75.28181,36.98296],[75.4179,36.95912],[75.39407,36.9284],[75.43326,36.87649],[75.42638,36.78432],[75.4601,36.72985],[75.50369,36.74883],[75.53441,36.734],[75.5397,36.78009],[75.63343,36.78009],[75.73563,36.75308],[75.94107,36.60636],[75.93578,36.57563],[76.02785,36.43963],[76.14928,36.42455],[76.23899,36.3199],[76.31858,36.33008],[76.38886,36.30977],[76.42865,36.23955],[76.46926,36.22001],[76.56828,36.1904],[76.66894,36.1904],[76.71876,36.15991],[76.75865,36.11005],[76.77891,36.03982],[76.77891,35.91026],[76.83906,35.85952],[77.00856,35.81973],[77.06861,35.77994],[77.08959,35.7402],[77.20896,35.70966],[77.34859,35.71978],[77.42135,35.64015],[77.46889,35.65188],[77.50868,35.58015],[77.51873,35.48566]]],[[[93.84583,7.24456],[93.8625,7.21119],[93.89372,7.20414],[93.89706,7.08828],[93.9258,7.02786],[93.96289,7.00333],[93.93997,7.01117],[93.92872,6.99578],[93.95705,6.95914],[93.90953,6.905],[93.90625,6.84667],[93.92539,6.83664],[93.91458,6.81],[93.895,6.79458],[93.86833,6.81544],[93.84248,6.75292],[93.82203,6.7625],[93.82794,6.81831],[93.80292,6.83503],[93.78958,6.87747],[93.80247,6.88372],[93.77414,6.91956],[93.76292,6.90831],[93.72961,6.99497],[93.69997,7.02206],[93.66956,7.01744],[93.66209,7.10414],[93.67539,7.11583],[93.66039,7.12831],[93.68628,7.15578],[93.68747,7.18703],[93.73497,7.18869],[93.7625,7.21533],[93.81039,7.20578],[93.81206,7.23664],[93.84583,7.24456]]],[[[93.73622,7.42325],[93.775,7.36542],[93.66414,7.24789],[93.63789,7.30831],[93.64786,7.37244],[93.72334,7.38869],[93.72083,7.44453],[93.73622,7.42325]]],[[[93.3775,8.02125],[93.40372,8.00583],[93.40039,7.96825],[93.45456,7.93247],[93.45917,7.87033],[93.42658,7.90033],[93.37664,7.87786],[93.33994,7.88869],[93.34995,7.94206],[93.31873,7.92411],[93.3195,7.99411],[93.3775,8.02125]]],[[[93.5675,8.02619],[93.59292,7.98831],[93.58994,7.92617],[93.51875,7.98328],[93.54375,8.02331],[93.56245,7.99617],[93.5675,8.02619]]],[[[93.53748,8.23622],[93.55791,8.22081],[93.54955,8.18078],[93.5087,8.15081],[93.55703,8.08917],[93.56123,8.03747],[93.52084,8.03125],[93.51244,7.99789],[93.49625,8.0425],[93.51958,8.03914],[93.52084,8.06625],[93.525,8.04792],[93.54872,8.06581],[93.52666,8.08369],[93.49706,8.05164],[93.50125,8.09081],[93.48289,8.09667],[93.46289,8.16747],[93.505,8.22789],[93.53748,8.23622]]],[[[93.13086,8.35456],[93.14875,8.345],[93.13372,8.27333],[93.21039,8.21747],[93.20247,8.19622],[93.12414,8.22622],[93.09541,8.26494],[93.09961,8.33417],[93.13086,8.35456]]],[[[92.78036,9.24672],[92.81873,9.21422],[92.83036,9.14169],[92.80414,9.11794],[92.73911,9.12044],[92.72119,9.14169],[92.72039,9.21083],[92.76408,9.21461],[92.78036,9.24672]]],[[[92.54914,10.88039],[92.54498,10.86539],[92.55664,10.86042],[92.55495,10.88039],[92.58872,10.85333],[92.59539,10.78994],[92.56622,10.79583],[92.62202,10.76161],[92.61953,10.66994],[92.54786,10.5925],[92.57786,10.56831],[92.52414,10.50706],[92.4375,10.54453],[92.38744,10.52706],[92.41619,10.62914],[92.38625,10.65747],[92.38458,10.79081],[92.39664,10.80289],[92.4083,10.78872],[92.50333,10.8895],[92.51247,10.86706],[92.52492,10.89706],[92.54914,10.88039]]],[[[92.6608,11.49372],[92.68792,11.46583],[92.69453,11.42164],[92.65456,11.405],[92.69869,11.38667],[92.69961,11.36497],[92.61083,11.33953],[92.58875,11.365],[92.59747,11.39706],[92.62955,11.39997],[92.62373,11.48833],[92.64081,11.51122],[92.6608,11.49372]]],[[[92.23289,11.5875],[92.28128,11.57497],[92.27414,11.51375],[92.22539,11.52667],[92.21125,11.5825],[92.23289,11.5875]]],[[[92.97544,12.03325],[93.01622,12.01831],[93.06123,11.90081],[93.04833,11.87956],[93.00372,11.93417],[93.03289,11.93078],[93.01039,11.975],[93.01622,11.9575],[93.00667,11.94869],[92.99541,11.97081],[92.99,11.94289],[92.96455,11.98083],[92.93044,11.9925],[92.97083,12.04783],[92.97544,12.03325]]],[[[93.03211,12.14747],[93.0517,12.04456],[93.01373,12.08],[93.00794,12.13167],[93.03497,12.16372],[93.03211,12.14747]]],[[[93.07917,12.20872],[93.10208,12.14411],[93.0808,12.08206],[93.04459,12.12581],[93.07917,12.20872]]],[[[92.70956,12.22742],[92.72039,12.18908],[92.70705,12.16328],[92.74167,12.18117],[92.76373,12.17242],[92.74045,12.09906],[92.74709,12.05492],[92.71208,12.04908],[92.74836,12.06203],[92.79792,12.05075],[92.77081,12.02036],[92.74292,12.02992],[92.77292,12.0],[92.75205,11.99497],[92.76164,11.97706],[92.73331,11.97703],[92.74375,11.96414],[92.72369,11.95831],[92.72286,11.92333],[92.73939,11.89281],[92.75247,11.93036],[92.78997,11.93539],[92.80039,11.89664],[92.76289,11.69747],[92.75122,11.70497],[92.74834,11.68286],[92.70914,11.70125],[92.69791,11.69247],[92.71375,11.69333],[92.71786,11.66578],[92.67203,11.64747],[92.67958,11.62083],[92.69,11.63211],[92.70331,11.61625],[92.70541,11.64664],[92.73875,11.65333],[92.72916,11.67711],[92.76292,11.65836],[92.76292,11.63911],[92.74128,11.6325],[92.75872,11.63411],[92.76208,11.60828],[92.71917,11.47289],[92.70959,11.49917],[92.65622,11.51497],[92.65622,11.56664],[92.62625,11.55747],[92.61459,11.61414],[92.6433,11.61292],[92.64958,11.62997],[92.61286,11.63414],[92.60664,11.71211],[92.58125,11.71247],[92.57205,11.69161],[92.55708,11.84331],[92.53333,11.82208],[92.52122,11.84331],[92.57161,11.94039],[92.59375,11.88414],[92.61122,11.89333],[92.61497,11.84706],[92.62869,12.10164],[92.66872,12.20906],[92.68125,12.17411],[92.68208,12.21408],[92.70331,12.23953],[92.70956,12.22742]]],[[[92.82661,12.30286],[92.87666,12.30117],[92.89455,12.28328],[92.89789,12.25489],[92.86958,12.23908],[92.88875,12.19322],[92.85081,12.19453],[92.86459,12.16408],[92.82333,12.15953],[92.81958,12.10492],[92.79208,12.09911],[92.80961,12.08906],[92.77333,12.05867],[92.74622,12.09408],[92.78625,12.23744],[92.76917,12.22703],[92.74953,12.24658],[92.78622,12.27658],[92.78083,12.30783],[92.82661,12.30286]]],[[[92.9095,12.91078],[92.93034,12.90914],[92.9145,12.88242],[92.93703,12.88408],[92.95705,12.83575],[92.96367,12.79078],[92.94119,12.77328],[92.99117,12.70828],[92.97539,12.70161],[92.96786,12.62242],[92.94872,12.61575],[92.96786,12.61244],[92.98952,12.53492],[92.97872,12.48828],[92.95827,12.49369],[92.93244,12.46369],[92.97039,12.46825],[92.92956,12.43747],[92.92247,12.40203],[92.89786,12.44078],[92.90955,12.45744],[92.89167,12.44197],[92.85042,12.46992],[92.90706,12.41908],[92.88831,12.41033],[92.81123,12.43575],[92.80991,12.45703],[92.80872,12.43328],[92.84039,12.42331],[92.86625,12.36158],[92.89956,12.34575],[92.87542,12.33161],[92.89703,12.32075],[92.83497,12.302],[92.78083,12.31536],[92.74661,12.29614],[92.70625,12.32739],[92.71533,12.59747],[92.6937,12.61244],[92.71911,12.61367],[92.72411,12.64283],[92.73244,12.62286],[92.75911,12.667],[92.78369,12.66575],[92.79161,12.63286],[92.79617,12.70078],[92.77995,12.67119],[92.74286,12.66911],[92.75205,12.72244],[92.73031,12.82247],[92.74289,12.82994],[92.74911,12.8095],[92.76078,12.84203],[92.78825,12.82453],[92.80328,12.88789],[92.85661,12.89119],[92.86908,12.87533],[92.90366,12.89494],[92.90739,12.92369],[92.9095,12.91078]]],[[[92.71075,12.98622],[92.7345,12.88914],[92.707,12.83078],[92.68536,12.82328],[92.69698,12.80658],[92.67747,12.77869],[92.65789,12.85747],[92.67786,12.88161],[92.677,12.96325],[92.71075,12.98622]]],[[[93.04872,13.54583],[93.05039,13.47917],[93.02875,13.45747],[93.04205,13.43083],[93.01542,13.4275],[93.05331,13.40206],[93.07044,13.4125],[93.07958,13.39917],[93.05959,13.37581],[93.09628,13.3275],[93.07164,13.30542],[93.06831,13.32458],[93.04792,13.31828],[93.05167,13.35044],[93.0125,13.34792],[92.99664,13.32458],[92.97414,13.35958],[92.96289,13.34247],[93.00623,13.30917],[92.99706,13.28833],[93.01836,13.31622],[93.02081,13.27292],[93.07291,13.26333],[93.04372,13.18581],[93.04125,13.05747],[93.015,13.02372],[92.97661,13.03128],[92.96995,13.00703],[92.94373,13.035],[92.94955,13.09581],[92.94003,13.05039],[92.89667,13.08872],[92.92039,13.05664],[92.88708,13.04083],[92.92122,13.04164],[92.91444,12.99658],[92.94703,12.96661],[92.91495,12.94456],[92.90614,12.99078],[92.88783,12.93742],[92.86489,12.93786],[92.87664,12.88119],[92.81158,12.89614],[92.79953,12.97411],[92.82655,12.98286],[92.83708,13.00917],[92.79456,13.01333],[92.79872,13.08833],[92.82244,13.07208],[92.81372,13.09333],[92.83292,13.11167],[92.81702,13.1225],[92.85703,13.135],[92.81709,13.15167],[92.82244,13.17039],[92.84125,13.16747],[92.82625,13.17833],[92.83542,13.23333],[92.86208,13.23583],[92.82958,13.26664],[92.84956,13.29747],[92.82956,13.30833],[92.84792,13.37247],[92.85995,13.35789],[92.88628,13.38581],[92.85208,13.39997],[92.88625,13.40333],[92.87872,13.46667],[92.90747,13.47625],[92.90997,13.49625],[92.93792,13.49411],[92.91872,13.50417],[92.94125,13.52083],[92.92917,13.53208],[92.99747,13.52789],[92.99875,13.56578],[93.02247,13.54125],[93.0367,13.57456],[93.04872,13.54583]]],[[[88.55286,21.6312],[88.58988,21.60167],[88.54468,21.56853],[88.51117,21.60519],[88.5241,21.65247],[88.55286,21.6312]]],[[[88.30826,21.7063],[88.34454,21.69169],[88.35331,21.65127],[88.31749,21.60624],[88.30826,21.7063]]],[[[88.72657,21.66569],[88.76881,21.65464],[88.79102,21.58444],[88.75784,21.58061],[88.75188,21.59614],[88.73104,21.57614],[88.70975,21.59126],[88.72083,21.6391],[88.68956,21.68292],[88.69711,21.71056],[88.72657,21.66569]]],[[[88.21081,21.67036],[88.23292,21.64164],[88.21333,21.59539],[88.18042,21.68917],[88.205,21.72375],[88.21622,21.69914],[88.19625,21.68167],[88.21081,21.67036]]],[[[88.55888,21.72989],[88.60268,21.68418],[88.58674,21.66052],[88.59649,21.61997],[88.52838,21.65882],[88.51779,21.71164],[88.54129,21.73677],[88.55888,21.72989]]],[[[88.54486,21.81184],[88.57108,21.78973],[88.57133,21.73501],[88.53983,21.73768],[88.52272,21.71936],[88.50492,21.77226],[88.54486,21.81184]]],[[[88.16872,21.7858],[88.15536,21.68167],[88.12786,21.67997],[88.15708,21.67414],[88.14872,21.63417],[88.11,21.62289],[88.05167,21.64036],[88.0387,21.665],[88.05209,21.715],[88.13664,21.87539],[88.17625,21.81],[88.16872,21.7858]]],[[[88.64633,21.91717],[88.6674,21.91265],[88.64093,21.87173],[88.65306,21.8679],[88.63675,21.78619],[88.59507,21.85842],[88.64633,21.91717]]],[[[88.66371,22.01863],[88.71511,22.00055],[88.67926,21.94432],[88.62938,21.95901],[88.63916,22.00394],[88.66371,22.01863]]],[[[88.07024,21.92172],[88.04882,21.91601],[88.08023,22.00929],[88.1433,22.02786],[88.07024,21.92172]]]]}}]}